start=new Date('2022-06-30T00:00:00.000Z').valueOf();
sats=[{"TLE_LINE2":"2 52542  53.2174  65.1181 0001565  54.7982 166.7319 15.31171299  1302","TLE_LINE1":"1 52542U 22051K   22180.91667824 -.00713511  00000-0 -25318-1 0  9994","OBJECT_ID":"2022-051K","MEAN_ANOMALY":"166.7319","PERIAPSIS":"471.246","DECAY_DATE":null,"SITE":"AFWTR","MEAN_MOTION":"15.31171299","ECCENTRICITY":"0.00015650","PERIOD":"94.046","MEAN_MOTION_DDOT":"0.0000000000000","FILE":"3505610","NORAD_CAT_ID":"52542","CENTER_NAME":"EARTH","MEAN_MOTION_DOT":"-0.00713511","OBJECT_NAME":"STARLINK-3937","CLASSIFICATION_TYPE":"U","BSTAR":"-0.02531800000000","REF_FRAME":"TEME","REV_AT_EPOCH":"130","GP_ID":"207122194","SEMIMAJOR_AXIS":"6850.453","ARG_OF_PERICENTER":"54.7982","MEAN_ELEMENT_THEORY":"SGP4","APOAPSIS":"473.391","RCS_SIZE":"LARGE","INCLINATION":"53.2174","ELEMENT_SET_NO":"999","EPHEMERIS_TYPE":"0","EPOCH":"2022-06-29T22:00:00.999936","LAUNCH_DATE":"2022-05-13","OBJECT_TYPE":"PAYLOAD","RA_OF_ASC_NODE":"65.1181","TIME_SYSTEM":"UTC","COUNTRY_CODE":"US"},{"GP_ID":"207122092","SEMIMAJOR_AXIS":"6852.227","ARG_OF_PERICENTER":"61.3409","REV_AT_EPOCH":"130","EPHEMERIS_TYPE":"0","ELEMENT_SET_NO":"999","EPOCH":"2022-06-29T22:00:00.999936","RA_OF_ASC_NODE":"65.0971","TIME_SYSTEM":"UTC","OBJECT_TYPE":"PAYLOAD","LAUNCH_DATE":"2022-05-13","COUNTRY_CODE":"US","MEAN_ELEMENT_THEORY":"SGP4","APOAPSIS":"475.114","RCS_SIZE":"LARGE","INCLINATION":"53.2173","MEAN_MOTION":"15.30576836","SITE":"AFWTR","TLE_LINE2":"2 52543  53.2173  65.0971 0001492  61.3409 131.0413 15.30576836  1300","TLE_LINE1":"1 52543U 22051L   22180.91667824 -.00713933  00000-0 -25810-1 0  9990","MEAN_ANOMALY":"131.0413","OBJECT_ID":"2022-051L","DECAY_DATE":null,"PERIAPSIS":"473.070","MEAN_MOTION_DOT":"-0.00713933","OBJECT_NAME":"STARLINK-3926","REF_FRAME":"TEME","BSTAR":"-0.02581000000000","CLASSIFICATION_TYPE":"U","ECCENTRICITY":"0.00014920","MEAN_MOTION_DDOT":"0.0000000000000","PERIOD":"94.082","FILE":"3505610","NORAD_CAT_ID":"52543","CENTER_NAME":"EARTH"},{"MEAN_MOTION":"15.08884748","SITE":"AFWTR","PERIAPSIS":"538.473","DECAY_DATE":null,"OBJECT_ID":"2022-051M","MEAN_ANOMALY":"234.8812","TLE_LINE1":"1 52544U 22051M   22180.91667824 -.00049808  00000-0 -31293-2 0  9997","TLE_LINE2":"2 52544  53.2196  69.0034 0001642  46.7720 234.8812 15.08884748  1304","CLASSIFICATION_TYPE":"U","BSTAR":"-0.00312930000000","REF_FRAME":"TEME","OBJECT_NAME":"STARLINK-3944","MEAN_MOTION_DOT":"-0.00049808","NORAD_CAT_ID":"52544","FILE":"3505610","CENTER_NAME":"EARTH","PERIOD":"95.435","MEAN_MOTION_DDOT":"0.0000000000000","ECCENTRICITY":"0.00016420","ARG_OF_PERICENTER":"46.7720","GP_ID":"207122701","SEMIMAJOR_AXIS":"6917.744","REV_AT_EPOCH":"130","COUNTRY_CODE":"US","LAUNCH_DATE":"2022-05-13","OBJECT_TYPE":"PAYLOAD","TIME_SYSTEM":"UTC","RA_OF_ASC_NODE":"69.0034","EPOCH":"2022-06-29T22:00:00.999936","ELEMENT_SET_NO":"999","EPHEMERIS_TYPE":"0","INCLINATION":"53.2196","RCS_SIZE":"LARGE","APOAPSIS":"540.745","MEAN_ELEMENT_THEORY":"SGP4"},{"CENTER_NAME":"EARTH","FILE":"3505610","NORAD_CAT_ID":"52545","ECCENTRICITY":"0.00015310","PERIOD":"94.070","MEAN_MOTION_DDOT":"0.0000000000000","BSTAR":"-0.02564400000000","CLASSIFICATION_TYPE":"U","REF_FRAME":"TEME","OBJECT_NAME":"STARLINK-3939","MEAN_MOTION_DOT":"-0.00713765","MEAN_ANOMALY":"143.7044","OBJECT_ID":"2022-051N","PERIAPSIS":"472.452","DECAY_DATE":null,"TLE_LINE2":"2 52545  53.2173  65.1041 0001531  58.4862 143.7044 15.30774986  1301","TLE_LINE1":"1 52545U 22051N   22180.91667824 -.00713765  00000-0 -25644-1 0  9990","SITE":"AFWTR","MEAN_MOTION":"15.30774986","APOAPSIS":"474.550","RCS_SIZE":"LARGE","INCLINATION":"53.2173","MEAN_ELEMENT_THEORY":"SGP4","LAUNCH_DATE":"2022-05-13","OBJECT_TYPE":"PAYLOAD","TIME_SYSTEM":"UTC","RA_OF_ASC_NODE":"65.1041","COUNTRY_CODE":"US","ELEMENT_SET_NO":"999","EPHEMERIS_TYPE":"0","EPOCH":"2022-06-29T22:00:00.999936","REV_AT_EPOCH":"130","ARG_OF_PERICENTER":"58.4862","SEMIMAJOR_AXIS":"6851.636","GP_ID":"207122347"},{"REV_AT_EPOCH":"130","ARG_OF_PERICENTER":"46.7052","GP_ID":"207122548","SEMIMAJOR_AXIS":"6849.455","APOAPSIS":"472.479","RCS_SIZE":"LARGE","INCLINATION":"53.2174","MEAN_ELEMENT_THEORY":"SGP4","TIME_SYSTEM":"UTC","RA_OF_ASC_NODE":"65.1290","LAUNCH_DATE":"2022-05-13","OBJECT_TYPE":"PAYLOAD","COUNTRY_CODE":"US","EPHEMERIS_TYPE":"0","ELEMENT_SET_NO":"999","EPOCH":"2022-06-29T22:00:00.999936","OBJECT_ID":"2022-051P","MEAN_ANOMALY":"191.8903","DECAY_DATE":null,"PERIAPSIS":"470.161","TLE_LINE2":"2 52546  53.2174  65.1290 0001692  46.7052 191.8903 15.31506148  1300","TLE_LINE1":"1 52546U 22051P   22180.91667824 -.00713541  00000-0 -25054-1 0  9998","SITE":"AFWTR","MEAN_MOTION":"15.31506148","FILE":"3505610","CENTER_NAME":"EARTH","NORAD_CAT_ID":"52546","ECCENTRICITY":"0.00016920","MEAN_MOTION_DDOT":"0.0000000000000","PERIOD":"94.025","REF_FRAME":"TEME","BSTAR":"-0.02505400000000","CLASSIFICATION_TYPE":"U","MEAN_MOTION_DOT":"-0.00713541","OBJECT_NAME":"STARLINK-3948"},{"RCS_SIZE":"LARGE","INCLINATION":"53.2199","APOAPSIS":"541.026","MEAN_ELEMENT_THEORY":"SGP4","COUNTRY_CODE":"US","RA_OF_ASC_NODE":"69.0037","TIME_SYSTEM":"UTC","LAUNCH_DATE":"2022-05-13","OBJECT_TYPE":"PAYLOAD","EPOCH":"2022-06-29T22:00:00.999936","EPHEMERIS_TYPE":"0","ELEMENT_SET_NO":"999","REV_AT_EPOCH":"130","ARG_OF_PERICENTER":"47.1392","GP_ID":"207122447","SEMIMAJOR_AXIS":"6917.830","FILE":"3505610","NORAD_CAT_ID":"52547","CENTER_NAME":"EARTH","MEAN_MOTION_DDOT":"0.0000000000000","PERIOD":"95.437","ECCENTRICITY":"0.00019230","REF_FRAME":"TEME","BSTAR":"-0.00130680000000","CLASSIFICATION_TYPE":"U","MEAN_MOTION_DOT":"-0.00021035","OBJECT_NAME":"STARLINK-3869","DECAY_DATE":null,"PERIAPSIS":"538.365","OBJECT_ID":"2022-051Q","MEAN_ANOMALY":"214.3863","TLE_LINE1":"1 52547U 22051Q   22180.91667824 -.00021035  00000-0 -13068-2 0  9992","TLE_LINE2":"2 52547  53.2199  69.0037 0001923  47.1392 214.3863 15.08856399  1305","SITE":"AFWTR","MEAN_MOTION":"15.08856399"},{"ECCENTRICITY":"0.00014020","MEAN_MOTION_DDOT":"0.0000000000000","PERIOD":"93.974","NORAD_CAT_ID":"52548","FILE":"3505610","CENTER_NAME":"EARTH","OBJECT_NAME":"STARLINK-3931","MEAN_MOTION_DOT":"-0.00714197","REF_FRAME":"TEME","BSTAR":"-0.02442700000000","CLASSIFICATION_TYPE":"U","TLE_LINE2":"2 52548  53.2175  65.1566 0001402  62.4330 215.8147 15.32344636  1302","TLE_LINE1":"1 52548U 22051R   22180.91667824 -.00714197  00000-0 -24427-1 0  9991","MEAN_ANOMALY":"215.8147","OBJECT_ID":"2022-051R","DECAY_DATE":null,"PERIAPSIS":"467.861","MEAN_MOTION":"15.32344636","SITE":"AFWTR","MEAN_ELEMENT_THEORY":"SGP4","APOAPSIS":"469.781","INCLINATION":"53.2175","RCS_SIZE":"LARGE","EPHEMERIS_TYPE":"0","ELEMENT_SET_NO":"999","EPOCH":"2022-06-29T22:00:00.999936","TIME_SYSTEM":"UTC","RA_OF_ASC_NODE":"65.1566","OBJECT_TYPE":"PAYLOAD","LAUNCH_DATE":"2022-05-13","COUNTRY_CODE":"US","REV_AT_EPOCH":"130","GP_ID":"207122649","SEMIMAJOR_AXIS":"6846.956","ARG_OF_PERICENTER":"62.4330"},{"FILE":"3505610","CENTER_NAME":"EARTH","NORAD_CAT_ID":"52549","ECCENTRICITY":"0.00017050","PERIOD":"94.034","MEAN_MOTION_DDOT":"0.0000000000000","CLASSIFICATION_TYPE":"U","BSTAR":"-0.02516600000000","REF_FRAME":"TEME","OBJECT_NAME":"STARLINK-3935","MEAN_MOTION_DOT":"-0.00713494","OBJECT_ID":"2022-051S","MEAN_ANOMALY":"184.8021","PERIAPSIS":"470.583","DECAY_DATE":null,"TLE_LINE2":"2 52549  53.2174  65.1241 0001705  46.6761 184.8021 15.31361680  1303","TLE_LINE1":"1 52549U 22051S   22180.91667824 -.00713494  00000-0 -25166-1 0  9992","SITE":"AFWTR","MEAN_MOTION":"15.31361680","APOAPSIS":"472.919","RCS_SIZE":"LARGE","INCLINATION":"53.2174","MEAN_ELEMENT_THEORY":"SGP4","LAUNCH_DATE":"2022-05-13","OBJECT_TYPE":"PAYLOAD","TIME_SYSTEM":"UTC","RA_OF_ASC_NODE":"65.1241","COUNTRY_CODE":"US","ELEMENT_SET_NO":"999","EPHEMERIS_TYPE":"0","EPOCH":"2022-06-29T22:00:00.999936","REV_AT_EPOCH":"130","ARG_OF_PERICENTER":"46.6761","GP_ID":"207121993","SEMIMAJOR_AXIS":"6849.886"},{"INCLINATION":"53.2175","RCS_SIZE":"LARGE","APOAPSIS":"471.118","MEAN_ELEMENT_THEORY":"SGP4","COUNTRY_CODE":"US","TIME_SYSTEM":"UTC","RA_OF_ASC_NODE":"65.1435","LAUNCH_DATE":"2022-05-13","OBJECT_TYPE":"PAYLOAD","EPOCH":"2022-06-29T22:00:00.999936","EPHEMERIS_TYPE":"0","ELEMENT_SET_NO":"999","REV_AT_EPOCH":"130","ARG_OF_PERICENTER":"48.5460","SEMIMAJOR_AXIS":"6848.138","GP_ID":"207122195","FILE":"3505610","NORAD_CAT_ID":"52550","CENTER_NAME":"EARTH","MEAN_MOTION_DDOT":"0.0000000000000","PERIOD":"93.998","ECCENTRICITY":"0.00016280","REF_FRAME":"TEME","BSTAR":"-0.02471900000000","CLASSIFICATION_TYPE":"U","OBJECT_NAME":"STARLINK-3965","MEAN_MOTION_DOT":"-0.00713815","DECAY_DATE":null,"PERIAPSIS":"468.888","MEAN_ANOMALY":"211.4563","OBJECT_ID":"2022-051T","TLE_LINE1":"1 52550U 22051T   22180.91667824 -.00713815  00000-0 -24719-1 0  9994","TLE_LINE2":"2 52550  53.2175  65.1435 0001628  48.5460 211.4563 15.31947903  1308","SITE":"AFWTR","MEAN_MOTION":"15.31947903"},{"OBJECT_ID":"2022-051U","MEAN_ANOMALY":"190.3871","PERIAPSIS":"470.081","DECAY_DATE":null,"TLE_LINE2":"2 52551  53.2174  65.1300 0001612  50.9998 190.3871 15.31551255  1303","TLE_LINE1":"1 52551U 22051U   22180.91667824 -.00713543  00000-0 -25019-1 0  9997","MEAN_MOTION":"15.31551255","SITE":"AFWTR","FILE":"3505610","NORAD_CAT_ID":"52551","CENTER_NAME":"EARTH","ECCENTRICITY":"0.00016120","PERIOD":"94.022","MEAN_MOTION_DDOT":"0.0000000000000","BSTAR":"-0.02501900000000","CLASSIFICATION_TYPE":"U","REF_FRAME":"TEME","MEAN_MOTION_DOT":"-0.00713543","OBJECT_NAME":"STARLINK-3969","REV_AT_EPOCH":"130","ARG_OF_PERICENTER":"50.9998","GP_ID":"207122093","SEMIMAJOR_AXIS":"6849.320","APOAPSIS":"472.290","RCS_SIZE":"LARGE","INCLINATION":"53.2174","MEAN_ELEMENT_THEORY":"SGP4","LAUNCH_DATE":"2022-05-13","OBJECT_TYPE":"PAYLOAD","TIME_SYSTEM":"UTC","RA_OF_ASC_NODE":"65.1300","COUNTRY_CODE":"US","ELEMENT_SET_NO":"999","EPHEMERIS_TYPE":"0","EPOCH":"2022-06-29T22:00:00.999936"}];
